[
    {
        "OBJECT_NAME": "ONEWEB-0344",
        "OBJECT_ID": "2021-083AA",
        "EPOCH": "2025-12-06T18:30:50.942880",
        "MEAN_MOTION": 13.13470703,
        "ECCENTRICITY": 0.00013483,
        "INCLINATION": 87.897,
        "RA_OF_ASC_NODE": 358.5099,
        "ARG_OF_PERICENTER": 86.9472,
        "MEAN_ANOMALY": 273.1812,
        "EPHEMERIS_TYPE": 0,
        "CLASSIFICATION_TYPE": "U",
        "NORAD_CAT_ID": 49210,
        "ELEMENT_SET_NO": 999,
        "REV_AT_EPOCH": 20563,
        "BSTAR": -0.00056601664,
        "MEAN_MOTION_DOT": -1.94e-06,
        "MEAN_MOTION_DDOT": 0
    },
    {
        "OBJECT_NAME": "ONEWEB-0345",
        "OBJECT_ID": "2021-083AB",
        "EPOCH": "2025-12-06T18:18:39.729312",
        "MEAN_MOTION": 13.13470765,
        "ECCENTRICITY": 0.0001392,
        "INCLINATION": 87.898,
        "RA_OF_ASC_NODE": 358.471,
        "ARG_OF_PERICENTER": 84.2799,
        "MEAN_ANOMALY": 275.8489,
        "EPHEMERIS_TYPE": 0,
        "CLASSIFICATION_TYPE": "U",
        "NORAD_CAT_ID": 49211,
        "ELEMENT_SET_NO": 999,
        "REV_AT_EPOCH": 20564,
        "BSTAR": -0.00029283095,
        "MEAN_MOTION_DOT": -9.4e-07,
        "MEAN_MOTION_DDOT": 0
    },
    {
        "OBJECT_NAME": "ONEWEB-0346",
        "OBJECT_ID": "2021-083AC",
        "EPOCH": "2025-12-06T15:31:40.029312",
        "MEAN_MOTION": 13.18686487,
        "ECCENTRICITY": 0.00017692,
        "INCLINATION": 87.918,
        "RA_OF_ASC_NODE": 13.7118,
        "ARG_OF_PERICENTER": 116.4359,
        "MEAN_ANOMALY": 243.6955,
        "EPHEMERIS_TYPE": 0,
        "CLASSIFICATION_TYPE": "U",
        "NORAD_CAT_ID": 49212,
        "ELEMENT_SET_NO": 999,
        "REV_AT_EPOCH": 20460,
        "BSTAR": 8.1143784e-05,
        "MEAN_MOTION_DOT": 4.5e-07,
        "MEAN_MOTION_DDOT": 0
    },
    {
        "OBJECT_NAME": "ONEWEB-0348",
        "OBJECT_ID": "2021-083AD",
        "EPOCH": "2025-12-06T22:03:34.220448",
        "MEAN_MOTION": 13.2077071,
        "ECCENTRICITY": 0.00012597,
        "INCLINATION": 87.9188,
        "RA_OF_ASC_NODE": 312.7846,
        "ARG_OF_PERICENTER": 92.4337,
        "MEAN_ANOMALY": 267.6941,
        "EPHEMERIS_TYPE": 0,
        "CLASSIFICATION_TYPE": "U",
        "NORAD_CAT_ID": 49213,
        "ELEMENT_SET_NO": 999,
        "REV_AT_EPOCH": 21143,
        "BSTAR": -2.4562536e-05,
        "MEAN_MOTION_DOT": 3e-08,
        "MEAN_MOTION_DDOT": 0
    },
    {
        "OBJECT_NAME": "ONEWEB-0350",
        "OBJECT_ID": "2021-083AE",
        "EPOCH": "2025-12-06T18:32:04.177248",
        "MEAN_MOTION": 13.13470036,
        "ECCENTRICITY": 0.00014039,
        "INCLINATION": 87.898,
        "RA_OF_ASC_NODE": 358.4664,
        "ARG_OF_PERICENTER": 90.8199,
        "MEAN_ANOMALY": 269.3091,
        "EPHEMERIS_TYPE": 0,
        "CLASSIFICATION_TYPE": "U",
        "NORAD_CAT_ID": 49214,
        "ELEMENT_SET_NO": 999,
        "REV_AT_EPOCH": 20567,
        "BSTAR": -0.00065362149,
        "MEAN_MOTION_DOT": -2.26e-06,
        "MEAN_MOTION_DDOT": 0
    },
    {
        "OBJECT_NAME": "ONEWEB-0351",
        "OBJECT_ID": "2021-083AF",
        "EPOCH": "2025-12-06T21:54:16.853184",
        "MEAN_MOTION": 13.20773543,
        "ECCENTRICITY": 0.00022568,
        "INCLINATION": 87.9197,
        "RA_OF_ASC_NODE": 312.7821,
        "ARG_OF_PERICENTER": 62.4762,
        "MEAN_ANOMALY": 297.66,
        "EPHEMERIS_TYPE": 0,
        "CLASSIFICATION_TYPE": "U",
        "NORAD_CAT_ID": 49215,
        "ELEMENT_SET_NO": 999,
        "REV_AT_EPOCH": 21139,
        "BSTAR": -5.6875708e-05,
        "MEAN_MOTION_DOT": -1e-07,
        "MEAN_MOTION_DDOT": 0
    },
    {
        "OBJECT_NAME": "ONEWEB-0352",
        "OBJECT_ID": "2021-083AG",
        "EPOCH": "2025-12-06T14:24:39.300768",
        "MEAN_MOTION": 13.13469721,
        "ECCENTRICITY": 0.00019742,
        "INCLINATION": 87.897,
        "RA_OF_ASC_NODE": 358.5243,
        "ARG_OF_PERICENTER": 81.3305,
        "MEAN_ANOMALY": 278.8048,
        "EPHEMERIS_TYPE": 0,
        "CLASSIFICATION_TYPE": "U",
        "NORAD_CAT_ID": 49216,
        "ELEMENT_SET_NO": 999,
        "REV_AT_EPOCH": 20574,
        "BSTAR": 4.5506193e-05,
        "MEAN_MOTION_DOT": 2.9e-07,
        "MEAN_MOTION_DDOT": 0
    },
    {
        "OBJECT_NAME": "ONEWEB-0354",
        "OBJECT_ID": "2021-083AH",
        "EPOCH": "2025-12-06T22:30:49.737024",
        "MEAN_MOTION": 13.20770396,
        "ECCENTRICITY": 0.00015526,
        "INCLINATION": 87.9198,
        "RA_OF_ASC_NODE": 312.7761,
        "ARG_OF_PERICENTER": 84.0047,
        "MEAN_ANOMALY": 276.1263,
        "EPHEMERIS_TYPE": 0,
        "CLASSIFICATION_TYPE": "U",
        "NORAD_CAT_ID": 49217,
        "ELEMENT_SET_NO": 999,
        "REV_AT_EPOCH": 21143,
        "BSTAR": 0.00018134656,
        "MEAN_MOTION_DOT": 8.7e-07,
        "MEAN_MOTION_DDOT": 0
    },
    {
        "OBJECT_NAME": "ONEWEB-0355",
        "OBJECT_ID": "2021-083AJ",
        "EPOCH": "2025-12-06T13:16:35.381856",
        "MEAN_MOTION": 13.1347158,
        "ECCENTRICITY": 0.00016374,
        "INCLINATION": 87.8973,
        "RA_OF_ASC_NODE": 358.5462,
        "ARG_OF_PERICENTER": 84.6475,
        "MEAN_ANOMALY": 275.4841,
        "EPHEMERIS_TYPE": 0,
        "CLASSIFICATION_TYPE": "U",
        "NORAD_CAT_ID": 49218,
        "ELEMENT_SET_NO": 999,
        "REV_AT_EPOCH": 20561,
        "BSTAR": -0.00050370869,
        "MEAN_MOTION_DOT": -1.71e-06,
        "MEAN_MOTION_DDOT": 0
    },
    {
        "OBJECT_NAME": "ONEWEB-0357",
        "OBJECT_ID": "2021-083AK",
        "EPOCH": "2025-12-06T22:26:17.007648",
        "MEAN_MOTION": 13.20774556,
        "ECCENTRICITY": 0.00018036,
        "INCLINATION": 87.9196,
        "RA_OF_ASC_NODE": 312.7731,
        "ARG_OF_PERICENTER": 79.1123,
        "MEAN_ANOMALY": 281.0214,
        "EPHEMERIS_TYPE": 0,
        "CLASSIFICATION_TYPE": "U",
        "NORAD_CAT_ID": 49219,
        "ELEMENT_SET_NO": 999,
        "REV_AT_EPOCH": 21143,
        "BSTAR": 4.7552129e-05,
        "MEAN_MOTION_DOT": 3.2e-07,
        "MEAN_MOTION_DDOT": 0
    },
    {
        "OBJECT_NAME": "ONEWEB-0332",
        "OBJECT_ID": "2021-090A",
        "EPOCH": "2025-12-06T22:40:58.256544",
        "MEAN_MOTION": 13.14503658,
        "ECCENTRICITY": 0.00019993,
        "INCLINATION": 87.8976,
        "RA_OF_ASC_NODE": 328.0179,
        "ARG_OF_PERICENTER": 85.2776,
        "MEAN_ANOMALY": 274.8582,
        "EPHEMERIS_TYPE": 0,
        "CLASSIFICATION_TYPE": "U",
        "NORAD_CAT_ID": 49279,
        "ELEMENT_SET_NO": 999,
        "REV_AT_EPOCH": 20232,
        "BSTAR": 0.00048699417,
        "MEAN_MOTION_DOT": 1.93e-06,
        "MEAN_MOTION_DDOT": 0
    },
    {
        "OBJECT_NAME": "ONEWEB-0347",
        "OBJECT_ID": "2021-090B",
        "EPOCH": "2025-12-06T22:12:40.225248",
        "MEAN_MOTION": 13.20773213,
        "ECCENTRICITY": 0.00021032,
        "INCLINATION": 87.9187,
        "RA_OF_ASC_NODE": 312.7857,
        "ARG_OF_PERICENTER": 87.2767,
        "MEAN_ANOMALY": 272.8607,
        "EPHEMERIS_TYPE": 0,
        "CLASSIFICATION_TYPE": "U",
        "NORAD_CAT_ID": 49280,
        "ELEMENT_SET_NO": 999,
        "REV_AT_EPOCH": 20566,
        "BSTAR": -2.1637153e-05,
        "MEAN_MOTION_DOT": 4e-08,
        "MEAN_MOTION_DDOT": 0
    }
]