[{"norad_id":"49210","company":"ONEWEB","tle_line2":"2 49210  87.8970 358.5099 0001348  86.9472 273.1812 13.13470703205637","launch_date":"2021-09-14","type":"LEO","tle_line1":"1 49210U 21083AA  25340.77142295 -.00000194  00000+0 -56602-3 0  9998","satellite_name":"ONEWEB-0344"},{"norad_id":"49211","company":"ONEWEB","tle_line2":"2 49211  87.8980 358.4710 0001392  84.2799 275.8489 13.13470765205648","launch_date":"2021-09-14","type":"LEO","tle_line1":"1 49211U 21083AB  25340.76295983 -.00000094  00000+0 -29283-3 0  9995","satellite_name":"ONEWEB-0345"},{"norad_id":"49212","company":"ONEWEB","tle_line2":"2 49212  87.9180  13.7118 0001769 116.4359 243.6955 13.18686487204604","launch_date":"2021-09-14","type":"LEO","tle_line1":"1 49212U 21083AC  25340.64699108  .00000045  00000+0  81144-4 0  9999","satellite_name":"ONEWEB-0346"},{"norad_id":"49213","company":"ONEWEB","tle_line2":"2 49213  87.9188 312.7846 0001259  92.4337 267.6941 13.20770710211432","launch_date":"2021-09-14","type":"LEO","tle_line1":"1 49213U 21083AD  25340.91914607  .00000003  00000+0 -24563-4 0  9991","satellite_name":"ONEWEB-0348"},{"norad_id":"49214","company":"ONEWEB","tle_line2":"2 49214  87.8980 358.4664 0001403  90.8199 269.3091 13.13470036205670","launch_date":"2021-09-14","type":"LEO","tle_line1":"1 49214U 21083AE  25340.77227057 -.00000226  00000+0 -65362-3 0  9991","satellite_name":"ONEWEB-0350"},{"norad_id":"49215","company":"ONEWEB","tle_line2":"2 49215  87.9197 312.7821 0002256  62.4762 297.6600 13.20773543211391","launch_date":"2021-09-14","type":"LEO","tle_line1":"1 49215U 21083AF  25340.91269506 -.00000010  00000+0 -56876-4 0  9995","satellite_name":"ONEWEB-0351"},{"norad_id":"49216","company":"ONEWEB","tle_line2":"2 49216  87.8970 358.5243 0001974  81.3305 278.8048 13.13469721205746","launch_date":"2021-09-14","type":"LEO","tle_line1":"1 49216U 21083AG  25340.60045487  .00000029  00000+0  45506-4 0  9998","satellite_name":"ONEWEB-0352"},{"norad_id":"49217","company":"ONEWEB","tle_line2":"2 49217  87.9198 312.7761 0001552  84.0047 276.1263 13.20770396211436","launch_date":"2021-09-14","type":"LEO","tle_line1":"1 49217U 21083AH  25340.93807566  .00000087  00000+0  18135-3 0  9990","satellite_name":"ONEWEB-0354"},{"norad_id":"49218","company":"ONEWEB","tle_line2":"2 49218  87.8973 358.5462 0001637  84.6475 275.4841 13.13471580205610","launch_date":"2021-09-14","type":"LEO","tle_line1":"1 49218U 21083AJ  25340.55318729 -.00000171  00000+0 -50371-3 0  9991","satellite_name":"ONEWEB-0355"},{"norad_id":"49219","company":"ONEWEB","tle_line2":"2 49219  87.9196 312.7731 0001803  79.1123 281.0214 13.20774556211435","launch_date":"2021-09-14","type":"LEO","tle_line1":"1 49219U 21083AK  25340.93491907  .00000032  00000+0  47552-4 0  9996","satellite_name":"ONEWEB-0357"},{"norad_id":"49279","company":"ONEWEB","tle_line2":"2 49279  87.8976 328.0179 0001999  85.2776 274.8582 13.14503658202322","launch_date":"2021-10-14","type":"LEO","tle_line1":"1 49279U 21090A   25340.94511871  .00000193  00000+0  48699-3 0  9994","satellite_name":"ONEWEB-0332"},{"norad_id":"49280","company":"ONEWEB","tle_line2":"2 49280  87.9187 312.7857 0002103  87.2767 272.8607 13.20773213205661","launch_date":"2021-10-14","type":"LEO","tle_line1":"1 49280U 21090B   25340.92546557  .00000004  00000+0 -21637-4 0  9999","satellite_name":"ONEWEB-0347"}]